DELTA 2 R/B(1)          
1 20453U 90008B   26005.31717389  .00058857  00000+0  88149-3 0  9998
2 20453  35.6036 228.0346 0104779  32.6160 328.0992 15.47647498916284
COSMOS 2058             
1 20465U 90010A   26005.33973515  .00005486  00000+0  32892-3 0  9995
2 20465  82.4718 109.8186 0010036 188.6442 171.4617 15.10741487932677
SL-14 R/B               
1 20466U 90010B   26005.62298207  .00000751  00000+0  88063-4 0  9998
2 20466  82.5035 326.6163 0020682 143.9664 216.2950 14.83500276919135
SL-14 R/B               
1 20511U 90018B   26005.24247013  .00000736  00000+0  89604-4 0  9999
2 20511  82.5222 282.3998 0015155 304.2644  55.7134 14.82076924913183
HST                     
1 20580U 90037B   26005.36698117  .00008527  00000+0  29152-3 0  9991
2 20580  28.4668 111.6230 0002484 126.2079 233.8746 15.28406732763614
SL-16 R/B               
1 20625U 90046B   26005.56927715  .00000372  00000+0  21646-3 0  9992
2 20625  70.9996  70.4780 0012856  32.8905 327.3015 14.15002040839460
COSMOS 2084             
1 20663U 90055A   26005.61895323  .00004272  00000+0  30956-3 0  9996
2 20663  62.7888 190.6185 0027720 178.1248 181.9962 15.05194564926820
SL-6 R/B(2)             
1 20666U 90055D   26005.58345970  .00003291  00000+0  25586-3 0  9996
2 20666  62.7841 108.3912 0015697 324.1598  35.8447 15.03222795928707
SL-8 R/B                
1 20775U 90078B   26005.56249757  .00018146  00000+0  55513-3 0  9994
2 20775  82.9070 307.9737 0369069 225.6548 131.3884 14.86804619799910
SL-8 R/B                
1 21088U 91006B   26005.64818527  .00000024  00000+0  87872-5 0  9991
2 21088  82.9409 216.9285 0021790 209.3213 211.2332 13.77492927755399
OKEAN-3                 
1 21397U 91039A   26005.56375184  .00004760  00000+0  33926-3 0  9998
2 21397  82.5153  37.9821 0014332 179.4764 180.6480 15.04298607855545
COSMOS 2151             
1 21422U 91042A   26005.64241904  .00003237  00000+0  25934-3 0  9990
2 21422  82.4976 144.4679 0011140 273.0089  86.9860 14.99809016853741
