CCSDS_OMM_VERS = 2.0
CREATION_DATE  = 
ORIGINATOR     = 

OBJECT_NAME    = DELTA 2 R/B(1)
OBJECT_ID      = 1990-008B
CENTER_NAME    = EARTH
REF_FRAME      = TEME
TIME_SYSTEM    = UTC
MEAN_ELEMENT_THEORY = SGP/SGP4

EPOCH          = 2026-01-05T07:36:43.824096
MEAN_MOTION    = 15.47647498
ECCENTRICITY   = .01047791
INCLINATION    = 35.6036
RA_OF_ASC_NODE = 228.0346
ARG_OF_PERICENTER = 32.6160
MEAN_ANOMALY   = 328.0992

EPHEMERIS_TYPE = 0
CLASSIFICATION_TYPE = U
NORAD_CAT_ID   = 20453
ELEMENT_SET_NO = 999
REV_AT_EPOCH   = 91628
BSTAR          = .88148536E-3
MEAN_MOTION_DOT = .58857E-3
MEAN_MOTION_DDOT = 0

CCSDS_OMM_VERS = 2.0
CREATION_DATE  = 
ORIGINATOR     = 

OBJECT_NAME    = COSMOS 2058
OBJECT_ID      = 1990-010A
CENTER_NAME    = EARTH
REF_FRAME      = TEME
TIME_SYSTEM    = UTC
MEAN_ELEMENT_THEORY = SGP/SGP4

EPOCH          = 2026-01-05T08:09:13.116960
MEAN_MOTION    = 15.10741487
ECCENTRICITY   = .00100362
INCLINATION    = 82.4718
RA_OF_ASC_NODE = 109.8186
ARG_OF_PERICENTER = 188.6442
MEAN_ANOMALY   = 171.4617

EPHEMERIS_TYPE = 0
CLASSIFICATION_TYPE = U
NORAD_CAT_ID   = 20465
ELEMENT_SET_NO = 999
REV_AT_EPOCH   = 93267
BSTAR          = .3289222E-3
MEAN_MOTION_DOT = .5486E-4
MEAN_MOTION_DDOT = 0

CCSDS_OMM_VERS = 2.0
CREATION_DATE  = 
ORIGINATOR     = 

OBJECT_NAME    = SL-14 R/B
OBJECT_ID      = 1990-010B
CENTER_NAME    = EARTH
REF_FRAME      = TEME
TIME_SYSTEM    = UTC
MEAN_ELEMENT_THEORY = SGP/SGP4

EPOCH          = 2026-01-05T14:57:05.650848
MEAN_MOTION    = 14.83500276
ECCENTRICITY   = .00206826
INCLINATION    = 82.5035
RA_OF_ASC_NODE = 326.6163
ARG_OF_PERICENTER = 143.9664
MEAN_ANOMALY   = 216.2950

EPHEMERIS_TYPE = 0
CLASSIFICATION_TYPE = U
NORAD_CAT_ID   = 20466
ELEMENT_SET_NO = 999
REV_AT_EPOCH   = 91913
BSTAR          = .880625E-4
MEAN_MOTION_DOT = .751E-5
MEAN_MOTION_DDOT = 0

CCSDS_OMM_VERS = 2.0
CREATION_DATE  = 
ORIGINATOR     = 

OBJECT_NAME    = SL-14 R/B
OBJECT_ID      = 1990-018B
CENTER_NAME    = EARTH
REF_FRAME      = TEME
TIME_SYSTEM    = UTC
MEAN_ELEMENT_THEORY = SGP/SGP4

EPOCH          = 2026-01-05T05:49:09.419232
MEAN_MOTION    = 14.82076924
ECCENTRICITY   = .0015155
INCLINATION    = 82.5222
RA_OF_ASC_NODE = 282.3998
ARG_OF_PERICENTER = 304.2644
MEAN_ANOMALY   = 55.7134

EPHEMERIS_TYPE = 0
CLASSIFICATION_TYPE = U
NORAD_CAT_ID   = 20511
ELEMENT_SET_NO = 999
REV_AT_EPOCH   = 91318
BSTAR          = .89604E-4
MEAN_MOTION_DOT = .736E-5
MEAN_MOTION_DDOT = 0

CCSDS_OMM_VERS = 2.0
CREATION_DATE  = 
ORIGINATOR     = 

OBJECT_NAME    = HST
OBJECT_ID      = 1990-037B
CENTER_NAME    = EARTH
REF_FRAME      = TEME
TIME_SYSTEM    = UTC
MEAN_ELEMENT_THEORY = SGP/SGP4

EPOCH          = 2026-01-05T08:48:27.173088
MEAN_MOTION    = 15.28406732
ECCENTRICITY   = .00024844
INCLINATION    = 28.4668
RA_OF_ASC_NODE = 111.6230
ARG_OF_PERICENTER = 126.2079
MEAN_ANOMALY   = 233.8746

EPHEMERIS_TYPE = 0
CLASSIFICATION_TYPE = U
NORAD_CAT_ID   = 20580
ELEMENT_SET_NO = 999
REV_AT_EPOCH   = 76361
BSTAR          = .29151636E-3
MEAN_MOTION_DOT = .8527E-4
MEAN_MOTION_DDOT = 0

CCSDS_OMM_VERS = 2.0
CREATION_DATE  = 
ORIGINATOR     = 

OBJECT_NAME    = SL-16 R/B
OBJECT_ID      = 1990-046B
CENTER_NAME    = EARTH
REF_FRAME      = TEME
TIME_SYSTEM    = UTC
MEAN_ELEMENT_THEORY = SGP/SGP4

EPOCH          = 2026-01-05T13:39:45.545760
MEAN_MOTION    = 14.15002040
ECCENTRICITY   = .00128569
INCLINATION    = 70.9996
RA_OF_ASC_NODE = 70.4780
ARG_OF_PERICENTER = 32.8905
MEAN_ANOMALY   = 327.3015

EPHEMERIS_TYPE = 0
CLASSIFICATION_TYPE = U
NORAD_CAT_ID   = 20625
ELEMENT_SET_NO = 999
REV_AT_EPOCH   = 83946
BSTAR          = .21646198E-3
MEAN_MOTION_DOT = .372E-5
MEAN_MOTION_DDOT = 0

CCSDS_OMM_VERS = 2.0
CREATION_DATE  = 
ORIGINATOR     = 

OBJECT_NAME    = COSMOS 2084
OBJECT_ID      = 1990-055A
CENTER_NAME    = EARTH
REF_FRAME      = TEME
TIME_SYSTEM    = UTC
MEAN_ELEMENT_THEORY = SGP/SGP4

EPOCH          = 2026-01-05T14:51:17.559072
MEAN_MOTION    = 15.05194564
ECCENTRICITY   = .002772
INCLINATION    = 62.7888
RA_OF_ASC_NODE = 190.6185
ARG_OF_PERICENTER = 178.1248
MEAN_ANOMALY   = 181.9962

EPHEMERIS_TYPE = 0
CLASSIFICATION_TYPE = U
NORAD_CAT_ID   = 20663
ELEMENT_SET_NO = 999
REV_AT_EPOCH   = 92682
BSTAR          = .30955554E-3
MEAN_MOTION_DOT = .4272E-4
MEAN_MOTION_DDOT = 0

CCSDS_OMM_VERS = 2.0
CREATION_DATE  = 
ORIGINATOR     = 

OBJECT_NAME    = SL-6 R/B(2)
OBJECT_ID      = 1990-055D
CENTER_NAME    = EARTH
REF_FRAME      = TEME
TIME_SYSTEM    = UTC
MEAN_ELEMENT_THEORY = SGP/SGP4

EPOCH          = 2026-01-05T14:00:10.918080
MEAN_MOTION    = 15.03222795
ECCENTRICITY   = .00156971
INCLINATION    = 62.7841
RA_OF_ASC_NODE = 108.3912
ARG_OF_PERICENTER = 324.1598
MEAN_ANOMALY   = 35.8447

EPHEMERIS_TYPE = 0
CLASSIFICATION_TYPE = U
NORAD_CAT_ID   = 20666
ELEMENT_SET_NO = 999
REV_AT_EPOCH   = 92870
BSTAR          = .2558631E-3
MEAN_MOTION_DOT = .3291E-4
MEAN_MOTION_DDOT = 0

CCSDS_OMM_VERS = 2.0
CREATION_DATE  = 
ORIGINATOR     = 

OBJECT_NAME    = SL-8 R/B
OBJECT_ID      = 1990-078B
CENTER_NAME    = EARTH
REF_FRAME      = TEME
TIME_SYSTEM    = UTC
MEAN_ELEMENT_THEORY = SGP/SGP4

EPOCH          = 2026-01-05T13:29:59.790048
MEAN_MOTION    = 14.86804619
ECCENTRICITY   = .03690694
INCLINATION    = 82.9070
RA_OF_ASC_NODE = 307.9737
ARG_OF_PERICENTER = 225.6548
MEAN_ANOMALY   = 131.3884

EPHEMERIS_TYPE = 0
CLASSIFICATION_TYPE = U
NORAD_CAT_ID   = 20775
ELEMENT_SET_NO = 999
REV_AT_EPOCH   = 79991
BSTAR          = .55512628E-3
MEAN_MOTION_DOT = .18146E-3
MEAN_MOTION_DDOT = 0

CCSDS_OMM_VERS = 2.0
CREATION_DATE  = 
ORIGINATOR     = 

OBJECT_NAME    = SL-8 R/B
OBJECT_ID      = 1991-006B
CENTER_NAME    = EARTH
REF_FRAME      = TEME
TIME_SYSTEM    = UTC
MEAN_ELEMENT_THEORY = SGP/SGP4

EPOCH          = 2026-01-05T15:33:23.207328
MEAN_MOTION    = 13.77492927
ECCENTRICITY   = .00217901
INCLINATION    = 82.9409
RA_OF_ASC_NODE = 216.9285
ARG_OF_PERICENTER = 209.3213
MEAN_ANOMALY   = 211.2332

EPHEMERIS_TYPE = 0
CLASSIFICATION_TYPE = U
NORAD_CAT_ID   = 21088
ELEMENT_SET_NO = 999
REV_AT_EPOCH   = 75539
BSTAR          = .878717E-5
MEAN_MOTION_DOT = .24E-6
MEAN_MOTION_DDOT = 0

CCSDS_OMM_VERS = 2.0
CREATION_DATE  = 
ORIGINATOR     = 

OBJECT_NAME    = OKEAN-3
OBJECT_ID      = 1991-039A
CENTER_NAME    = EARTH
REF_FRAME      = TEME
TIME_SYSTEM    = UTC
MEAN_ELEMENT_THEORY = SGP/SGP4

EPOCH          = 2026-01-05T13:31:48.158976
MEAN_MOTION    = 15.04298607
ECCENTRICITY   = .00143326
INCLINATION    = 82.5153
RA_OF_ASC_NODE = 37.9821
ARG_OF_PERICENTER = 179.4764
MEAN_ANOMALY   = 180.6480

EPHEMERIS_TYPE = 0
CLASSIFICATION_TYPE = U
NORAD_CAT_ID   = 21397
ELEMENT_SET_NO = 999
REV_AT_EPOCH   = 85554
BSTAR          = .33926407E-3
MEAN_MOTION_DOT = .476E-4
MEAN_MOTION_DDOT = 0

CCSDS_OMM_VERS = 2.0
CREATION_DATE  = 
ORIGINATOR     = 

OBJECT_NAME    = COSMOS 2151
OBJECT_ID      = 1991-042A
CENTER_NAME    = EARTH
REF_FRAME      = TEME
TIME_SYSTEM    = UTC
MEAN_ELEMENT_THEORY = SGP/SGP4

EPOCH          = 2026-01-05T15:25:05.005056
MEAN_MOTION    = 14.99809016
ECCENTRICITY   = .00111409
INCLINATION    = 82.4976
RA_OF_ASC_NODE = 144.4679
ARG_OF_PERICENTER = 273.0089
MEAN_ANOMALY   = 86.9860

EPHEMERIS_TYPE = 0
CLASSIFICATION_TYPE = U
NORAD_CAT_ID   = 21422
ELEMENT_SET_NO = 999
REV_AT_EPOCH   = 85374
BSTAR          = .25933685E-3
MEAN_MOTION_DOT = .3237E-4
MEAN_MOTION_DDOT = 0

